KUIPER-00079            
1 64826U 25151L   25277.66932531  .00001134  00000+0  17807-3 0  9992
2 64826  51.8982 270.1955 0012812  84.9027 275.3397 14.79897181 13403
KUIPER-00080            
1 64827U 25151M   25276.38171816 -.00042162  00000+0 -55247-2 0  9999
2 64827  51.8980 276.1900 0005765  96.4800 263.6819 14.80005519 12017
KUIPER-00082            
1 64828U 25151N   25277.83334491  .00071930  00000+0  37588-2 0  9992
2 64828  51.8876 260.5739 0006562  85.4253 291.1182 15.15208782  5719
KUIPER-00083            
1 64829U 25151P   25277.83334491 -.00837856  00000+0 -92232-1 0  9998
2 64829  51.8941 265.0977 0010428  90.0860  91.3846 14.90086889  5787
KUIPER-00084            
1 64830U 25151Q   25277.68943448  .00006762  00000+0  93017-3 0  9997
2 64830  51.8983 275.3627 0011731  64.1595 296.0576 14.79208323 12133
KUIPER-00085            
1 64831U 25151R   25277.83334491 -.00360665  00000+0 -20811-1 0  9994
2 64831  51.8960 260.6980 0010004  79.4264 164.5860 15.13578830  4387
KUIPER-00086            
1 64832U 25151S   25277.83334491 -.00713125  00000+0 -93477-1 0  9996
2 64832  51.9008 267.3035 0011834  87.8454  65.0610 14.82537310  3631
KUIPER-00087            
1 64833U 25151T   25277.83334491 -.00035499  00000+0 -11157-2 0  9994
2 64833  51.8800 258.8011 0007927  87.1001  65.9325 15.32248844  4178
