<?xml version="1.0" encoding="UTF-8"?>
<ndm xmlns:xsi="http://www.w3.org/2001/XMLSchema-instance" xsi:noNamespaceSchemaLocation="https://sanaregistry.org/r/ndmxml_unqualified/ndmxml-2.0.0-master-2.0.xsd">
<omm id="CCSDS_OMM_VERS" version="2.0">
<header><CREATION_DATE/><ORIGINATOR/></header><body><segment><metadata><OBJECT_NAME>KUIPER-00079</OBJECT_NAME><OBJECT_ID>2025-151L</OBJECT_ID><CENTER_NAME>EARTH</CENTER_NAME><REF_FRAME>TEME</REF_FRAME><TIME_SYSTEM>UTC</TIME_SYSTEM><MEAN_ELEMENT_THEORY>SGP4</MEAN_ELEMENT_THEORY></metadata><data><meanElements><EPOCH>2025-10-04T16:03:49.706784</EPOCH><MEAN_MOTION>14.79897181</MEAN_MOTION><ECCENTRICITY>.0012812</ECCENTRICITY><INCLINATION>51.8982</INCLINATION><RA_OF_ASC_NODE>270.1955</RA_OF_ASC_NODE><ARG_OF_PERICENTER>84.9027</ARG_OF_PERICENTER><MEAN_ANOMALY>275.3397</MEAN_ANOMALY></meanElements><tleParameters><EPHEMERIS_TYPE>0</EPHEMERIS_TYPE><CLASSIFICATION_TYPE>U</CLASSIFICATION_TYPE><NORAD_CAT_ID>64826</NORAD_CAT_ID><ELEMENT_SET_NO>999</ELEMENT_SET_NO><REV_AT_EPOCH>1340</REV_AT_EPOCH><BSTAR>.17807E-3</BSTAR><MEAN_MOTION_DOT>.1134E-4</MEAN_MOTION_DOT><MEAN_MOTION_DDOT>0</MEAN_MOTION_DDOT></tleParameters></data></segment></body></omm>
<omm id="CCSDS_OMM_VERS" version="2.0">
<header><CREATION_DATE/><ORIGINATOR/></header><body><segment><metadata><OBJECT_NAME>KUIPER-00080</OBJECT_NAME><OBJECT_ID>2025-151M</OBJECT_ID><CENTER_NAME>EARTH</CENTER_NAME><REF_FRAME>TEME</REF_FRAME><TIME_SYSTEM>UTC</TIME_SYSTEM><MEAN_ELEMENT_THEORY>SGP4</MEAN_ELEMENT_THEORY></metadata><data><meanElements><EPOCH>2025-10-03T09:09:40.449024</EPOCH><MEAN_MOTION>14.80005519</MEAN_MOTION><ECCENTRICITY>.00057654</ECCENTRICITY><INCLINATION>51.8980</INCLINATION><RA_OF_ASC_NODE>276.1900</RA_OF_ASC_NODE><ARG_OF_PERICENTER>96.4800</ARG_OF_PERICENTER><MEAN_ANOMALY>263.6819</MEAN_ANOMALY></meanElements><tleParameters><EPHEMERIS_TYPE>0</EPHEMERIS_TYPE><CLASSIFICATION_TYPE>U</CLASSIFICATION_TYPE><NORAD_CAT_ID>64827</NORAD_CAT_ID><ELEMENT_SET_NO>999</ELEMENT_SET_NO><REV_AT_EPOCH>1201</REV_AT_EPOCH><BSTAR>-.55246667E-2</BSTAR><MEAN_MOTION_DOT>-.42162E-3</MEAN_MOTION_DOT><MEAN_MOTION_DDOT>0</MEAN_MOTION_DDOT></tleParameters></data></segment></body></omm>
<omm id="CCSDS_OMM_VERS" version="2.0">
<header><CREATION_DATE/><ORIGINATOR/></header><body><segment><metadata><OBJECT_NAME>KUIPER-00082</OBJECT_NAME><OBJECT_ID>2025-151N</OBJECT_ID><CENTER_NAME>EARTH</CENTER_NAME><REF_FRAME>TEME</REF_FRAME><TIME_SYSTEM>UTC</TIME_SYSTEM><MEAN_ELEMENT_THEORY>SGP4</MEAN_ELEMENT_THEORY></metadata><data><meanElements><EPOCH>2025-10-04T20:00:01.000224</EPOCH><MEAN_MOTION>15.15208782</MEAN_MOTION><ECCENTRICITY>.0006562</ECCENTRICITY><INCLINATION>51.8876</INCLINATION><RA_OF_ASC_NODE>260.5739</RA_OF_ASC_NODE><ARG_OF_PERICENTER>85.4253</ARG_OF_PERICENTER><MEAN_ANOMALY>291.1182</MEAN_ANOMALY></meanElements><tleParameters><EPHEMERIS_TYPE>0</EPHEMERIS_TYPE><CLASSIFICATION_TYPE>U</CLASSIFICATION_TYPE><NORAD_CAT_ID>64828</NORAD_CAT_ID><ELEMENT_SET_NO>999</ELEMENT_SET_NO><REV_AT_EPOCH>571</REV_AT_EPOCH><BSTAR>.37588E-2</BSTAR><MEAN_MOTION_DOT>.7193E-3</MEAN_MOTION_DOT><MEAN_MOTION_DDOT>0</MEAN_MOTION_DDOT></tleParameters></data></segment></body></omm>
<omm id="CCSDS_OMM_VERS" version="2.0">
<header><CREATION_DATE/><ORIGINATOR/></header><body><segment><metadata><OBJECT_NAME>KUIPER-00083</OBJECT_NAME><OBJECT_ID>2025-151P</OBJECT_ID><CENTER_NAME>EARTH</CENTER_NAME><REF_FRAME>TEME</REF_FRAME><TIME_SYSTEM>UTC</TIME_SYSTEM><MEAN_ELEMENT_THEORY>SGP4</MEAN_ELEMENT_THEORY></metadata><data><meanElements><EPOCH>2025-10-04T20:00:01.000224</EPOCH><MEAN_MOTION>14.90086889</MEAN_MOTION><ECCENTRICITY>.0010428</ECCENTRICITY><INCLINATION>51.8941</INCLINATION><RA_OF_ASC_NODE>265.0977</RA_OF_ASC_NODE><ARG_OF_PERICENTER>90.0860</ARG_OF_PERICENTER><MEAN_ANOMALY>91.3846</MEAN_ANOMALY></meanElements><tleParameters><EPHEMERIS_TYPE>0</EPHEMERIS_TYPE><CLASSIFICATION_TYPE>U</CLASSIFICATION_TYPE><NORAD_CAT_ID>64829</NORAD_CAT_ID><ELEMENT_SET_NO>999</ELEMENT_SET_NO><REV_AT_EPOCH>578</REV_AT_EPOCH><BSTAR>-.92232E-1</BSTAR><MEAN_MOTION_DOT>-.837856E-2</MEAN_MOTION_DOT><MEAN_MOTION_DDOT>0</MEAN_MOTION_DDOT></tleParameters></data></segment></body></omm>
<omm id="CCSDS_OMM_VERS" version="2.0">
<header><CREATION_DATE/><ORIGINATOR/></header><body><segment><metadata><OBJECT_NAME>KUIPER-00084</OBJECT_NAME><OBJECT_ID>2025-151Q</OBJECT_ID><CENTER_NAME>EARTH</CENTER_NAME><REF_FRAME>TEME</REF_FRAME><TIME_SYSTEM>UTC</TIME_SYSTEM><MEAN_ELEMENT_THEORY>SGP4</MEAN_ELEMENT_THEORY></metadata><data><meanElements><EPOCH>2025-10-04T16:32:47.139072</EPOCH><MEAN_MOTION>14.79208323</MEAN_MOTION><ECCENTRICITY>.0011731</ECCENTRICITY><INCLINATION>51.8983</INCLINATION><RA_OF_ASC_NODE>275.3627</RA_OF_ASC_NODE><ARG_OF_PERICENTER>64.1595</ARG_OF_PERICENTER><MEAN_ANOMALY>296.0576</MEAN_ANOMALY></meanElements><tleParameters><EPHEMERIS_TYPE>0</EPHEMERIS_TYPE><CLASSIFICATION_TYPE>U</CLASSIFICATION_TYPE><NORAD_CAT_ID>64830</NORAD_CAT_ID><ELEMENT_SET_NO>999</ELEMENT_SET_NO><REV_AT_EPOCH>1213</REV_AT_EPOCH><BSTAR>.93017E-3</BSTAR><MEAN_MOTION_DOT>.6762E-4</MEAN_MOTION_DOT><MEAN_MOTION_DDOT>0</MEAN_MOTION_DDOT></tleParameters></data></segment></body></omm>
<omm id="CCSDS_OMM_VERS" version="2.0">
<header><CREATION_DATE/><ORIGINATOR/></header><body><segment><metadata><OBJECT_NAME>KUIPER-00085</OBJECT_NAME><OBJECT_ID>2025-151R</OBJECT_ID><CENTER_NAME>EARTH</CENTER_NAME><REF_FRAME>TEME</REF_FRAME><TIME_SYSTEM>UTC</TIME_SYSTEM><MEAN_ELEMENT_THEORY>SGP4</MEAN_ELEMENT_THEORY></metadata><data><meanElements><EPOCH>2025-10-04T20:00:01.000224</EPOCH><MEAN_MOTION>15.13578830</MEAN_MOTION><ECCENTRICITY>.0010004</ECCENTRICITY><INCLINATION>51.8960</INCLINATION><RA_OF_ASC_NODE>260.6980</RA_OF_ASC_NODE><ARG_OF_PERICENTER>79.4264</ARG_OF_PERICENTER><MEAN_ANOMALY>164.5860</MEAN_ANOMALY></meanElements><tleParameters><EPHEMERIS_TYPE>0</EPHEMERIS_TYPE><CLASSIFICATION_TYPE>U</CLASSIFICATION_TYPE><NORAD_CAT_ID>64831</NORAD_CAT_ID><ELEMENT_SET_NO>999</ELEMENT_SET_NO><REV_AT_EPOCH>438</REV_AT_EPOCH><BSTAR>-.20811E-1</BSTAR><MEAN_MOTION_DOT>-.360665E-2</MEAN_MOTION_DOT><MEAN_MOTION_DDOT>0</MEAN_MOTION_DDOT></tleParameters></data></segment></body></omm>
<omm id="CCSDS_OMM_VERS" version="2.0">
<header><CREATION_DATE/><ORIGINATOR/></header><body><segment><metadata><OBJECT_NAME>KUIPER-00086</OBJECT_NAME><OBJECT_ID>2025-151S</OBJECT_ID><CENTER_NAME>EARTH</CENTER_NAME><REF_FRAME>TEME</REF_FRAME><TIME_SYSTEM>UTC</TIME_SYSTEM><MEAN_ELEMENT_THEORY>SGP4</MEAN_ELEMENT_THEORY></metadata><data><meanElements><EPOCH>2025-10-04T20:00:01.000224</EPOCH><MEAN_MOTION>14.82537310</MEAN_MOTION><ECCENTRICITY>.0011834</ECCENTRICITY><INCLINATION>51.9008</INCLINATION><RA_OF_ASC_NODE>267.3035</RA_OF_ASC_NODE><ARG_OF_PERICENTER>87.8454</ARG_OF_PERICENTER><MEAN_ANOMALY>65.0610</MEAN_ANOMALY></meanElements><tleParameters><EPHEMERIS_TYPE>0</EPHEMERIS_TYPE><CLASSIFICATION_TYPE>U</CLASSIFICATION_TYPE><NORAD_CAT_ID>64832</NORAD_CAT_ID><ELEMENT_SET_NO>999</ELEMENT_SET_NO><REV_AT_EPOCH>363</REV_AT_EPOCH><BSTAR>-.93477E-1</BSTAR><MEAN_MOTION_DOT>-.713125E-2</MEAN_MOTION_DOT><MEAN_MOTION_DDOT>0</MEAN_MOTION_DDOT></tleParameters></data></segment></body></omm>
<omm id="CCSDS_OMM_VERS" version="2.0">
<header><CREATION_DATE/><ORIGINATOR/></header><body><segment><metadata><OBJECT_NAME>KUIPER-00087</OBJECT_NAME><OBJECT_ID>2025-151T</OBJECT_ID><CENTER_NAME>EARTH</CENTER_NAME><REF_FRAME>TEME</REF_FRAME><TIME_SYSTEM>UTC</TIME_SYSTEM><MEAN_ELEMENT_THEORY>SGP4</MEAN_ELEMENT_THEORY></metadata><data><meanElements><EPOCH>2025-10-04T20:00:01.000224</EPOCH><MEAN_MOTION>15.32248844</MEAN_MOTION><ECCENTRICITY>.0007927</ECCENTRICITY><INCLINATION>51.8800</INCLINATION><RA_OF_ASC_NODE>258.8011</RA_OF_ASC_NODE><ARG_OF_PERICENTER>87.1001</ARG_OF_PERICENTER><MEAN_ANOMALY>65.9325</MEAN_ANOMALY></meanElements><tleParameters><EPHEMERIS_TYPE>0</EPHEMERIS_TYPE><CLASSIFICATION_TYPE>U</CLASSIFICATION_TYPE><NORAD_CAT_ID>64833</NORAD_CAT_ID><ELEMENT_SET_NO>999</ELEMENT_SET_NO><REV_AT_EPOCH>417</REV_AT_EPOCH><BSTAR>-.11157E-2</BSTAR><MEAN_MOTION_DOT>-.35499E-3</MEAN_MOTION_DOT><MEAN_MOTION_DDOT>0</MEAN_MOTION_DDOT></tleParameters></data></segment></body></omm>

</ndm>
